{
    "links": {
        "self": "http://www.neowsapp.com/rest/v1/neo/3136733?api_key=iIulBulltgU6a56xZRHN4H3l9WmuAYTsLGpBGhQ2"
    },
    "id": "3136733",
    "neo_reference_id": "3136733",
    "name": "(2002 SN)",
    "designation": "2002 SN",
    "nasa_jpl_url": "http://ssd.jpl.nasa.gov/sbdb.cgi?sstr=3136733",
    "absolute_magnitude_h": 20.8,
    "estimated_diameter": {
        "kilometers": {
            "estimated_diameter_min": 0.1838886721,
            "estimated_diameter_max": 0.411187571
        },
        "meters": {
            "estimated_diameter_min": 183.8886720703,
            "estimated_diameter_max": 411.1875710413
        },
        "miles": {
            "estimated_diameter_min": 0.1142630881,
            "estimated_diameter_max": 0.2555000322
        },
        "feet": {
            "estimated_diameter_min": 603.309310875,
            "estimated_diameter_max": 1349.040630575
        }
    },
    "is_potentially_hazardous_asteroid": false,
    "close_approach_data": [
        {
            "close_approach_date": "2002-10-08",
            "close_approach_date_full": "2002-Oct-08 12:22",
            "epoch_date_close_approach": 1034079720000,
            "relative_velocity": {
                "kilometers_per_second": "3.8037683585",
                "kilometers_per_hour": "13693.5660905342",
                "miles_per_hour": "8508.6494410878"
            },
            "miss_distance": {
                "astronomical": "0.2185432067",
                "lunar": "85.0133074063",
                "kilometers": "32693598.225289729",
                "miles": "20314859.9246231002"
            },
            "orbiting_body": "Earth"
        }
    ],
    "orbital_data": {
        "orbit_id": "20",
        "orbit_determination_date": "2017-10-29 06:38:34",
        "first_observation_date": "2002-09-10",
        "last_observation_date": "2002-12-11",
        "data_arc_in_days": 92,
        "observations_used": 62,
        "orbit_uncertainty": "5",
        "minimum_orbit_intersection": ".218681",
        "jupiter_tisserand_invariant": "3.796",
        "epoch_osculation": "2459000.5",
        "eccentricity": ".3778253474836389",
        "semi_major_axis": "1.948604027816191",
        "inclination": "6.422983288974591",
        "ascending_node_longitude": "36.54583418855703",
        "orbital_period": "993.5364865654249",
        "perihelion_distance": "1.21237203389852",
        "perihelion_argument": "337.3694789066137",
        "aphelion_distance": "2.684836021733862",
        "perihelion_time": "2458517.560074577676",
        "mean_anomaly": "174.9894196166373",
        "mean_motion": ".362342002400426",
        "equinox": "J2000",
        "orbit_class": {
            "orbit_class_type": "AMO",
            "orbit_class_description": "Near-Earth asteroid orbits similar to that of 1221 Amor",
            "orbit_class_range": "1.017 AU < q (perihelion) < 1.3 AU"
        }
    },
    "is_sentry_object": false
}